BEESAT-7                
1 48084U 21022AN  23232.97997532  .00022511  00000+0  97106-3 0  9990
2 48084  97.4844 131.5887 0018102 102.4220 257.9043 15.22399615131512
BEESAT-8                
1 48085U 21022AP  23232.49521683  .00010195  00000+0  50821-3 0  9996
2 48085  97.4912 130.2377 0019073 106.9316 253.4010 15.17578385131930
LEDSAT                  
1 49069U 21073D   23233.71813499  .00008563  00000+0  45518-3 0  9993
2 49069  97.4776 303.5203 0022036 251.5958 108.2878 15.15315158110825
SPORT                   
1 55129U 98067UW  23233.50837191  .00146740  00000+0  70199-3 0  9999
2 55129  51.6277 341.7218 0007200 343.2184  16.8579 15.81779187 36832
OPTIMAL-1               
1 55183U 98067VA  23233.39098961  .05183587  12307-4  74211-3 0  9992
2 55183  51.6347 331.0564 0010608 323.4939  36.5361 16.33792705 35689
